[{"OBJECT_NAME":"FLOCK 4G-6","OBJECT_ID":"2025-009BD","EPOCH":"2026-03-09T17:03:16.973568","MEAN_MOTION":15.27432125,"ECCENTRICITY":0.00023795,"INCLINATION":97.398,"RA_OF_ASC_NODE":150.7943,"ARG_OF_PERICENTER":348.2637,"MEAN_ANOMALY":11.8546,"EPHEMERIS_TYPE":0,"CLASSIFICATION_TYPE":"U","NORAD_CAT_ID":62660,"ELEMENT_SET_NO":999,"REV_AT_EPOCH":12130,"BSTAR":0.00045909501,"MEAN_MOTION_DOT":0.00012261,"MEAN_MOTION_DDOT":0},{"OBJECT_NAME":"STARLINK-33893","OBJECT_ID":"2025-119W","EPOCH":"2026-03-09T00:19:38.024256","MEAN_MOTION":15.27597675,"ECCENTRICITY":0.00012771,"INCLINATION":42.9969,"RA_OF_ASC_NODE":311.0709,"ARG_OF_PERICENTER":280.8883,"MEAN_ANOMALY":79.1825,"EPHEMERIS_TYPE":0,"CLASSIFICATION_TYPE":"U","NORAD_CAT_ID":64253,"ELEMENT_SET_NO":999,"REV_AT_EPOCH":4406,"BSTAR":0.0012598872,"MEAN_MOTION_DOT":0.00034589,"MEAN_MOTION_DDOT":0}]
